[{"OBJECT_NAME":"BEIDOU-3 M2 (C20)","OBJECT_ID":"2017-069B","EPOCH":"2026-03-01T16:19:52.799808","MEAN_MOTION":1.86230491,"ECCENTRICITY":0.00096821,"INCLINATION":56.5973,"RA_OF_ASC_NODE":66.6603,"ARG_OF_PERICENTER":328.7679,"MEAN_ANOMALY":31.212,"EPHEMERIS_TYPE":0,"CLASSIFICATION_TYPE":"U","NORAD_CAT_ID":43002,"ELEMENT_SET_NO":999,"REV_AT_EPOCH":5659,"BSTAR":0,"MEAN_MOTION_DOT":-3.0e-8,"MEAN_MOTION_DDOT":0},{"OBJECT_NAME":"BEIDOU-3 M7 (C27)","OBJECT_ID":"2018-003A","EPOCH":"2026-03-01T23:01:37.382880","MEAN_MOTION":1.86232216,"ECCENTRICITY":0.00046395,"INCLINATION":54.4231,"RA_OF_ASC_NODE":306.0554,"ARG_OF_PERICENTER":70.8611,"MEAN_ANOMALY":289.2487,"EPHEMERIS_TYPE":0,"CLASSIFICATION_TYPE":"U","NORAD_CAT_ID":43107,"ELEMENT_SET_NO":999,"REV_AT_EPOCH":5535,"BSTAR":0,"MEAN_MOTION_DOT":-5.1e-7,"MEAN_MOTION_DDOT":0},{"OBJECT_NAME":"BEIDOU-3 M8 (C28)","OBJECT_ID":"2018-003B","EPOCH":"2026-03-02T10:36:24.799680","MEAN_MOTION":1.86230717,"ECCENTRICITY":0.0003139,"INCLINATION":54.4152,"RA_OF_ASC_NODE":306.0214,"ARG_OF_PERICENTER":293.24,"MEAN_ANOMALY":66.7868,"EPHEMERIS_TYPE":0,"CLASSIFICATION_TYPE":"U","NORAD_CAT_ID":43108,"ELEMENT_SET_NO":999,"REV_AT_EPOCH":5537,"BSTAR":0,"MEAN_MOTION_DOT":-5.3e-7,"MEAN_MOTION_DDOT":0},{"OBJECT_NAME":"BEIDOU-3 M4 (C22)","OBJECT_ID":"2018-018A","EPOCH":"2026-03-01T06:33:32.217984","MEAN_MOTION":1.86230768,"ECCENTRICITY":0.00068488,"INCLINATION":56.5572,"RA_OF_ASC_NODE":66.7052,"ARG_OF_PERICENTER":350.3261,"MEAN_ANOMALY":9.6997,"EPHEMERIS_TYPE":0,"CLASSIFICATION_TYPE":"U","NORAD_CAT_ID":43207,"ELEMENT_SET_NO":999,"REV_AT_EPOCH":5473,"BSTAR":0,"MEAN_MOTION_DOT":-1.0e-8,"MEAN_MOTION_DDOT":0},{"OBJECT_NAME":"BEIDOU-3 M3 (C21)","OBJECT_ID":"2018-018B","EPOCH":"2026-03-02T09:55:38.736192","MEAN_MOTION":1.8623093,"ECCENTRICITY":0.00098956,"INCLINATION":56.5577,"RA_OF_ASC_NODE":66.6717,"ARG_OF_PERICENTER":319.4833,"MEAN_ANOMALY":40.4775,"EPHEMERIS_TYPE":0,"CLASSIFICATION_TYPE":"U","NORAD_CAT_ID":43208,"ELEMENT_SET_NO":999,"REV_AT_EPOCH":5475,"BSTAR":0,"MEAN_MOTION_DOT":-8.0e-8,"MEAN_MOTION_DDOT":0},{"OBJECT_NAME":"BEIDOU-3 M9 (C29)","OBJECT_ID":"2018-029A","EPOCH":"2026-03-02T02:15:05.433696","MEAN_MOTION":1.86228126,"ECCENTRICITY":8.992e-5,"INCLINATION":54.2902,"RA_OF_ASC_NODE":303.6948,"ARG_OF_PERICENTER":20.3582,"MEAN_ANOMALY":339.7059,"EPHEMERIS_TYPE":0,"CLASSIFICATION_TYPE":"U","NORAD_CAT_ID":43245,"ELEMENT_SET_NO":999,"REV_AT_EPOCH":5390,"BSTAR":0,"MEAN_MOTION_DOT":-4.7e-7,"MEAN_MOTION_DDOT":0},{"OBJECT_NAME":"BEIDOU-3 M10 (C30)","OBJECT_ID":"2018-029B","EPOCH":"2026-03-02T00:41:20.085216","MEAN_MOTION":1.86228858,"ECCENTRICITY":0.00051128,"INCLINATION":54.2879,"RA_OF_ASC_NODE":303.7249,"ARG_OF_PERICENTER":23.5882,"MEAN_ANOMALY":336.4958,"EPHEMERIS_TYPE":0,"CLASSIFICATION_TYPE":"U","NORAD_CAT_ID":43246,"ELEMENT_SET_NO":999,"REV_AT_EPOCH":5388,"BSTAR":0,"MEAN_MOTION_DOT":-4.7e-7,"MEAN_MOTION_DDOT":0},{"OBJECT_NAME":"BEIDOU-2 IGSO-7 (C16)","OBJECT_ID":"2018-057A","EPOCH":"2026-02-25T17:45:22.620960","MEAN_MOTION":1.00284731,"ECCENTRICITY":0.00999628,"INCLINATION":55.1859,"RA_OF_ASC_NODE":164.0342,"ARG_OF_PERICENTER":236.5988,"MEAN_ANOMALY":133.5173,"EPHEMERIS_TYPE":0,"CLASSIFICATION_TYPE":"U","NORAD_CAT_ID":43539,"ELEMENT_SET_NO":999,"REV_AT_EPOCH":2801,"BSTAR":0,"MEAN_MOTION_DOT":-1.61e-6,"MEAN_MOTION_DDOT":0},{"OBJECT_NAME":"BEIDOU-3 M5 (C23)","OBJECT_ID":"2018-062A","EPOCH":"2026-03-02T06:04:03.186624","MEAN_MOTION":1.86228516,"ECCENTRICITY":0.0002089,"INCLINATION":54.0881,"RA_OF_ASC_NODE":185.9391,"ARG_OF_PERICENTER":311.2125,"MEAN_ANOMALY":48.7217,"EPHEMERIS_TYPE":0,"CLASSIFICATION_TYPE":"U","NORAD_CAT_ID":43581,"ELEMENT_SET_NO":999,"REV_AT_EPOCH":5164,"BSTAR":0,"MEAN_MOTION_DOT":-2.8e-7,"MEAN_MOTION_DDOT":0},{"OBJECT_NAME":"BEIDOU-3 M6 (C24)","OBJECT_ID":"2018-062B","EPOCH":"2026-03-02T15:39:51.386112","MEAN_MOTION":1.86227492,"ECCENTRICITY":0.0006283,"INCLINATION":54.0877,"RA_OF_ASC_NODE":185.9146,"ARG_OF_PERICENTER":44.0723,"MEAN_ANOMALY":315.9311,"EPHEMERIS_TYPE":0,"CLASSIFICATION_TYPE":"U","NORAD_CAT_ID":43582,"ELEMENT_SET_NO":999,"REV_AT_EPOCH":5165,"BSTAR":0,"MEAN_MOTION_DOT":-2.5e-7,"MEAN_MOTION_DDOT":0},{"OBJECT_NAME":"BEIDOU-3 M12 (C26)","OBJECT_ID":"2018-067A","EPOCH":"2026-03-02T14:11:11.114304","MEAN_MOTION":1.86227627,"ECCENTRICITY":0.0008588,"INCLINATION":54.1825,"RA_OF_ASC_NODE":184.6546,"ARG_OF_PERICENTER":39.8197,"MEAN_ANOMALY":320.1981,"EPHEMERIS_TYPE":0,"CLASSIFICATION_TYPE":"U","NORAD_CAT_ID":43602,"ELEMENT_SET_NO":999,"REV_AT_EPOCH":5113,"BSTAR":0,"MEAN_MOTION_DOT":-2.6e-7,"MEAN_MOTION_DDOT":0},{"OBJECT_NAME":"BEIDOU-3 M11 (C25)","OBJECT_ID":"2018-067B","EPOCH":"2026-03-02T04:31:59.314944","MEAN_MOTION":1.86227037,"ECCENTRICITY":0.00050133,"INCLINATION":54.1803,"RA_OF_ASC_NODE":184.6321,"ARG_OF_PERICENTER":34.6184,"MEAN_ANOMALY":325.368,"EPHEMERIS_TYPE":0,"CLASSIFICATION_TYPE":"U","NORAD_CAT_ID":43603,"ELEMENT_SET_NO":999,"REV_AT_EPOCH":5115,"BSTAR":0,"MEAN_MOTION_DOT":-2.9e-7,"MEAN_MOTION_DDOT":0},{"OBJECT_NAME":"BEIDOU-3 M13 (C32)","OBJECT_ID":"2018-072A","EPOCH":"2026-03-02T03:28:31.522656","MEAN_MOTION":1.86230769,"ECCENTRICITY":0.00088851,"INCLINATION":56.5306,"RA_OF_ASC_NODE":66.1905,"ARG_OF_PERICENTER":307.5967,"MEAN_ANOMALY":52.3573,"EPHEMERIS_TYPE":0,"CLASSIFICATION_TYPE":"U","NORAD_CAT_ID":43622,"ELEMENT_SET_NO":999,"REV_AT_EPOCH":5066,"BSTAR":0,"MEAN_MOTION_DOT":-7.0e-8,"MEAN_MOTION_DDOT":0},{"OBJECT_NAME":"BEIDOU-3 M14 (C33)","OBJECT_ID":"2018-072B","EPOCH":"2026-03-02T00:14:47.067072","MEAN_MOTION":1.86230813,"ECCENTRICITY":0.00063444,"INCLINATION":56.5324,"RA_OF_ASC_NODE":66.189,"ARG_OF_PERICENTER":328.5825,"MEAN_ANOMALY":31.415,"EPHEMERIS_TYPE":0,"CLASSIFICATION_TYPE":"U","NORAD_CAT_ID":43623,"ELEMENT_SET_NO":999,"REV_AT_EPOCH":5065,"BSTAR":0,"MEAN_MOTION_DOT":-6.0e-8,"MEAN_MOTION_DDOT":0},{"OBJECT_NAME":"BEIDOU-3 M16 (C35)","OBJECT_ID":"2018-078A","EPOCH":"2026-03-02T04:00:42.153984","MEAN_MOTION":1.86232266,"ECCENTRICITY":0.00084346,"INCLINATION":54.1863,"RA_OF_ASC_NODE":303.7392,"ARG_OF_PERICENTER":30.8134,"MEAN_ANOMALY":329.2965,"EPHEMERIS_TYPE":0,"CLASSIFICATION_TYPE":"U","NORAD_CAT_ID":43647,"ELEMENT_SET_NO":999,"REV_AT_EPOCH":5016,"BSTAR":0,"MEAN_MOTION_DOT":-4.8e-7,"MEAN_MOTION_DDOT":0},{"OBJECT_NAME":"BEIDOU-3 M15 (C34)","OBJECT_ID":"2018-078B","EPOCH":"2026-03-01T18:13:41.220768","MEAN_MOTION":1.86232013,"ECCENTRICITY":0.00053229,"INCLINATION":54.183,"RA_OF_ASC_NODE":303.7545,"ARG_OF_PERICENTER":37.6187,"MEAN_ANOMALY":322.4788,"EPHEMERIS_TYPE":0,"CLASSIFICATION_TYPE":"U","NORAD_CAT_ID":43648,"ELEMENT_SET_NO":999,"REV_AT_EPOCH":5017,"BSTAR":0,"MEAN_MOTION_DOT":-4.5e-7,"MEAN_MOTION_DDOT":0},{"OBJECT_NAME":"BEIDOU-3 G1 (C59)","OBJECT_ID":"2018-085A","EPOCH":"2026-03-02T18:12:17.976960","MEAN_MOTION":1.00269049,"ECCENTRICITY":0.000129,"INCLINATION":2.8063,"RA_OF_ASC_NODE":100.4335,"ARG_OF_PERICENTER":30.1716,"MEAN_ANOMALY":83.0505,"EPHEMERIS_TYPE":0,"CLASSIFICATION_TYPE":"U","NORAD_CAT_ID":43683,"ELEMENT_SET_NO":999,"REV_AT_EPOCH":2699,"BSTAR":0,"MEAN_MOTION_DOT":-2.94e-6,"MEAN_MOTION_DDOT":0}]
